{
  "type": "FeatureCollection",
  "features": [
    {
      "type": "Feature",
      "properties": {
        "norad_id": 35015,
        "name": "COSMOS 2251 DEB",
        "group": "cosmos-2251-debris",
        "lat": 37.2716232296764,
        "lon": -140.61607253369797,
        "alt_km": 687.6788995231755,
        "timestamp": "2025-12-27T15:27:11.590193+00:00",
        "meta_object_name": "COSMOS 2251 DEB",
        "meta_object_id": "1993-036AGC",
        "meta_epoch": "2025-12-26T21:05:28.048704",
        "meta_mean_motion": 14.46949541,
        "meta_eccentricity": 0.00746092,
        "meta_inclination": 73.9463,
        "meta_ra_of_asc_node": 208.1629,
        "meta_arg_of_pericenter": 73.2368,
        "meta_mean_anomaly": 302.6187,
        "meta_ephemeris_type": 0,
        "meta_classification_type": "U",
        "meta_norad_cat_id": 35015,
        "meta_element_set_no": 999,
        "meta_rev_at_epoch": 65645,
        "meta_bstar": 0.00070884813,
        "meta_mean_motion_dot": 2.639e-05,
        "meta_mean_motion_ddot": 0,
        "tle_line1": "1 35015U 93036AGC 25360.87879686  .00002639  00000+0  70885-3 0  9990",
        "tle_line2": "2 35015  73.9463 208.1629 0074609  73.2368 302.6187 14.46949541656451"
      },
      "geometry": {
        "type": "Point",
        "coordinates": [
          -140.61607253369797,
          37.2716232296764
        ]
      }
    },
    {
      "type": "Feature",
      "properties": {
        "norad_id": 35016,
        "name": "COSMOS 2251 DEB",
        "group": "cosmos-2251-debris",
        "lat": 32.31105194329634,
        "lon": 76.41971006288631,
        "alt_km": 705.052874905773,
        "timestamp": "2025-12-27T15:27:11.590203+00:00",
        "meta_object_name": "COSMOS 2251 DEB",
        "meta_object_id": "1993-036AGD",
        "meta_epoch": "2025-12-21T05:33:15.838848",
        "meta_mean_motion": 14.35075882,
        "meta_eccentricity": 0.01140745,
        "meta_inclination": 73.9302,
        "meta_ra_of_asc_node": 278.7521,
        "meta_arg_of_pericenter": 193.9283,
        "meta_mean_anomaly": 317.5381,
        "meta_ephemeris_type": 0,
        "meta_classification_type": "U",
        "meta_norad_cat_id": 35016,
        "meta_element_set_no": 999,
        "meta_rev_at_epoch": 86904,
        "meta_bstar": 0.00026149228,
        "meta_mean_motion_dot": 7.75e-06,
        "meta_mean_motion_ddot": 0,
        "tle_line1": "1 35016U 93036AGD 25355.23143332  .00000775  00000+0  26149-3 0  9990",
        "tle_line2": "2 35016  73.9302 278.7521 0114074 193.9283 317.5381 14.35075882869043"
      },
      "geometry": {
        "type": "Point",
        "coordinates": [
          76.41971006288631,
          32.31105194329634
        ]
      }
    },
    {
      "type": "Feature",
      "properties": {
        "norad_id": 35018,
        "name": "COSMOS 2251 DEB",
        "group": "cosmos-2251-debris",
        "lat": -21.342278353182653,
        "lon": -88.11545888210803,
        "alt_km": 1234.005927513571,
        "timestamp": "2025-12-27T15:27:11.590214+00:00",
        "meta_object_name": "COSMOS 2251 DEB",
        "meta_object_id": "1993-036AGF",
        "meta_epoch": "2025-12-26T22:38:59.059104",
        "meta_mean_motion": 13.67145257,
        "meta_eccentricity": 0.0349157,
        "meta_inclination": 73.9765,
        "meta_ra_of_asc_node": 86.5903,
        "meta_arg_of_pericenter": 352.7011,
        "meta_mean_anomaly": 6.909,
        "meta_ephemeris_type": 0,
        "meta_classification_type": "U",
        "meta_norad_cat_id": 35018,
        "meta_element_set_no": 999,
        "meta_rev_at_epoch": 83380,
        "meta_bstar": 0.001029,
        "meta_mean_motion_dot": 1.292e-05,
        "meta_mean_motion_ddot": 0,
        "tle_line1": "1 35018U 93036AGF 25360.94373911  .00001292  00000+0  10290-2 0  9998",
        "tle_line2": "2 35018  73.9765  86.5903 0349157 352.7011   6.9090 13.67145257833802"
      },
      "geometry": {
        "type": "Point",
        "coordinates": [
          -88.11545888210803,
          -21.342278353182653
        ]
      }
    },
    {
      "type": "Feature",
      "properties": {
        "norad_id": 35020,
        "name": "COSMOS 2251 DEB",
        "group": "cosmos-2251-debris",
        "lat": -65.07045257898574,
        "lon": 132.40606544769378,
        "alt_km": 627.098922874734,
        "timestamp": "2025-12-27T15:27:11.590225+00:00",
        "meta_object_name": "COSMOS 2251 DEB",
        "meta_object_id": "1993-036AGH",
        "meta_epoch": "2025-12-27T04:16:55.634016",
        "meta_mean_motion": 14.62828284,
        "meta_eccentricity": 0.00913177,
        "meta_inclination": 74.0449,
        "meta_ra_of_asc_node": 171.2851,
        "meta_arg_of_pericenter": 282.0872,
        "meta_mean_anomaly": 77.0074,
        "meta_ephemeris_type": 0,
        "meta_classification_type": "U",
        "meta_norad_cat_id": 35020,
        "meta_element_set_no": 999,
        "meta_rev_at_epoch": 88449,
        "meta_bstar": 0.00018749163,
        "meta_mean_motion_dot": 9.82e-06,
        "meta_mean_motion_ddot": 0,
        "tle_line1": "1 35020U 93036AGH 25361.17842169  .00000982  00000+0  18749-3 0  9996",
        "tle_line2": "2 35020  74.0449 171.2851 0091317 282.0872  77.0074 14.62828284884498"
      },
      "geometry": {
        "type": "Point",
        "coordinates": [
          132.40606544769378,
          -65.07045257898574
        ]
      }
    },
    {
      "type": "Feature",
      "properties": {
        "norad_id": 35022,
        "name": "COSMOS 2251 DEB",
        "group": "cosmos-2251-debris",
        "lat": -53.63703466452326,
        "lon": 136.32840408744542,
        "alt_km": 706.6756265476988,
        "timestamp": "2025-12-27T15:27:11.590235+00:00",
        "meta_object_name": "COSMOS 2251 DEB",
        "meta_object_id": "1993-036AGK",
        "meta_epoch": "2025-12-25T13:04:16.912416",
        "meta_mean_motion": 14.60885818,
        "meta_eccentricity": 0.0046189,
        "meta_inclination": 74.0261,
        "meta_ra_of_asc_node": 297.4455,
        "meta_arg_of_pericenter": 133.747,
        "meta_mean_anomaly": 226.7535,
        "meta_ephemeris_type": 0,
        "meta_classification_type": "U",
        "meta_norad_cat_id": 35022,
        "meta_element_set_no": 999,
        "meta_rev_at_epoch": 59330,
        "meta_bstar": 0.00049139,
        "meta_mean_motion_dot": 2.411e-05,
        "meta_mean_motion_ddot": 0,
        "tle_line1": "1 35022U 93036AGK 25359.54464019  .00002411  00000+0  49139-3 0  9996",
        "tle_line2": "2 35022  74.0261 297.4455 0046189 133.7470 226.7535 14.60885818593302"
      },
      "geometry": {
        "type": "Point",
        "coordinates": [
          136.32840408744542,
          -53.63703466452326
        ]
      }
    },
    {
      "type": "Feature",
      "properties": {
        "norad_id": 35023,
        "name": "COSMOS 2251 DEB",
        "group": "cosmos-2251-debris",
        "lat": 72.15800435384067,
        "lon": -60.26526457507994,
        "alt_km": 595.2017277348932,
        "timestamp": "2025-12-27T15:27:11.590245+00:00",
        "meta_object_name": "COSMOS 2251 DEB",
        "meta_object_id": "1993-036AGL",
        "meta_epoch": "2025-12-26T15:15:20.415744",
        "meta_mean_motion": 14.95526509,
        "meta_eccentricity": 0.0033423,
        "meta_inclination": 74.0371,
        "meta_ra_of_asc_node": 184.5532,
        "meta_arg_of_pericenter": 260.5788,
        "meta_mean_anomaly": 171.6189,
        "meta_ephemeris_type": 0,
        "meta_classification_type": "U",
        "meta_norad_cat_id": 35023,
        "meta_element_set_no": 999,
        "meta_rev_at_epoch": 88487,
        "meta_bstar": 0.0016022,
        "meta_mean_motion_dot": 0.00017965,
        "meta_mean_motion_ddot": 0,
        "tle_line1": "1 35023U 93036AGL 25360.63565296  .00017965  00000+0  16022-2 0  9992",
        "tle_line2": "2 35023  74.0371 184.5532 0033423 260.5788 171.6189 14.95526509884870"
      },
      "geometry": {
        "type": "Point",
        "coordinates": [
          -60.26526457507994,
          72.15800435384067
        ]
      }
    },
    {
      "type": "Feature",
      "properties": {
        "norad_id": 35025,
        "name": "COSMOS 2251 DEB",
        "group": "cosmos-2251-debris",
        "lat": 41.726206815418614,
        "lon": 48.61593033262907,
        "alt_km": 658.9905772629127,
        "timestamp": "2025-12-27T15:27:11.590256+00:00",
        "meta_object_name": "COSMOS 2251 DEB",
        "meta_object_id": "1993-036AGN",
        "meta_epoch": "2025-12-25T12:43:05.392128",
        "meta_mean_motion": 14.7277334,
        "meta_eccentricity": 0.0085734,
        "meta_inclination": 73.9378,
        "meta_ra_of_asc_node": 37.8677,
        "meta_arg_of_pericenter": 308.0127,
        "meta_mean_anomaly": 51.3326,
        "meta_ephemeris_type": 0,
        "meta_classification_type": "U",
        "meta_norad_cat_id": 35025,
        "meta_element_set_no": 999,
        "meta_rev_at_epoch": 88831,
        "meta_bstar": 0.00045426,
        "meta_mean_motion_dot": 3.041e-05,
        "meta_mean_motion_ddot": 0,
        "tle_line1": "1 35025U 93036AGN 25359.52992352  .00003041  00000+0  45426-3 0  9998",
        "tle_line2": "2 35025  73.9378  37.8677 0085734 308.0127  51.3326 14.72773340888316"
      },
      "geometry": {
        "type": "Point",
        "coordinates": [
          48.61593033262907,
          41.726206815418614
        ]
      }
    }
  ]
}